NORAD_CAT_ID,OBJECT_NAME,OBJECT_TYPE,EPOCH,MEAN_MOTION,ECCENTRICITY,INCLINATION,RA_OF_ASC_NODE,ARG_OF_PERICENTER,MEAN_ANOMALY,BSTAR,MEAN_MOTION_DOT,MEAN_MOTION_DDOT,TLE_LINE0,TLE_LINE1,TLE_LINE2,SEMIMAJOR_AXIS,PERIOD,APOGEE,PERIGEE,DECAYED
52493.0,STARLINK-3883,PAYLOAD,2022-10-02 07:27:33,15.08833701,0.0002026999999999,53.219,280.2413,43.5137,316.6014,-8.545200000000001e-05,-1.648e-05,0.0,0 STARLINK-3883,1 52493U 22049AU  22275.31080773 -.00001648  00000-0 -85452-4 0  9996,2 52493  53.2190 280.2413 0002027  43.5137 316.6014 15.08833701 23180,6917.9,95.438,541.1669999999998,538.362,0.0
52493.0,STARLINK-3883,PAYLOAD,2022-10-02 16:59:52,15.08837372,0.0001998,53.2187,278.4581,43.3117,316.8032,-7.8184e-05,-1.532e-05,0.0,0 STARLINK-3883,1 52493U 22049AU  22275.70824589 -.00001532  00000-0 -78184-4 0  9996,2 52493  53.2187 278.4581 0001998  43.3117 316.8032 15.08837372 23082,6917.888000000001,95.438,541.136,538.371,0.0
52493.0,STARLINK-3883,PAYLOAD,2022-10-03 04:07:33,15.08844239,0.0001882,53.2188,276.3759,47.5638,312.5513,-1.0168e-05,-4.5e-06,0.0,0 STARLINK-3883,1 52493U 22049AU  22276.17191829 -.00000450  00000-0 -10168-4 0  9998,2 52493  53.2188 276.3759 0001882  47.5638 312.5513 15.08844239 23316,6917.8669999999975,95.437,541.034,538.43,0.0
52493.0,STARLINK-3883,PAYLOAD,2022-10-03 10:29:05,15.08851144,0.0001950999999999,53.2189,275.1865,46.6642,313.4513,5.0615e-05,5.18e-06,0.0,0 STARLINK-3883,1 52493U 22049AU  22276.43687106  .00000518  00000-0  50615-4 0  9999,2 52493  53.2189 275.1865 0001951  46.6642 313.4513 15.08851144 23351,6917.846,95.437,541.061,538.362,0.0
52493.0,STARLINK-3883,PAYLOAD,2022-10-03 16:50:37,15.08853133,0.0002021999999999,53.219,273.997,46.0365,314.0793,7.975e-05,9.82e-06,0.0,0 STARLINK-3883,1 52493U 22049AU  22276.70182742  .00000982  00000-0  79750-4 0  9991,2 52493  53.2190 273.9970 0002022  46.0365 314.0793 15.08853133 23236,6917.84,95.437,541.104,538.306,0.0
52493.0,STARLINK-3883,PAYLOAD,2022-10-04 11:55:15,15.08838901,0.0001968,53.2188,270.4287,45.8784,314.2369,0.00011537,1.548e-05,0.0,0 STARLINK-3883,1 52493U 22049AU  22277.49671295  .00001548  00000-0  11537-3 0  9991,2 52493  53.2188 270.4287 0001968  45.8784 314.2369 15.08838901 23356,6917.884,95.438,541.11,538.387,0.0
52493.0,STARLINK-3883,PAYLOAD,2022-10-05 11:46:03,15.0883839,0.0001776999999999,53.2189,265.9669,49.7777,310.3371,-7.9217e-05,-1.549e-05,0.0,0 STARLINK-3883,1 52493U 22049AU  22278.49032073 -.00001549  00000-0 -79217-4 0  9990,2 52493  53.2189 265.9669 0001777  49.7777 310.3371 15.08838390 23669,6917.885,95.438,540.98,538.521,0.0
52493.0,STARLINK-3883,PAYLOAD,2022-10-05 16:32:12,15.08843904,0.0002053,53.2197,265.0756,47.3223,312.7942,-3.7831e-05,-8.900000000000001e-06,0.0,0 STARLINK-3883,1 52493U 22049AU  22278.68903657 -.00000890  00000-0 -37831-4 0  9990,2 52493  53.2197 265.0756 0002053  47.3223 312.7942 15.08843904 23537,6917.868,95.437,541.154,538.313,0.0
52493.0,STARLINK-3883,PAYLOAD,2022-10-05 22:53:45,15.08844594,0.0002082,53.2199,263.8859,48.0926,312.0244,-5.0572e-05,-1.093e-05,0.0,0 STARLINK-3883,1 52493U 22049AU  22278.95399585 -.00001093  00000-0 -50572-4 0  9992,2 52493  53.2199 263.8859 0002082  48.0926 312.0244 15.08844594 23735,6917.866,95.437,541.172,538.2909999999998,0.0
52493.0,STARLINK-3883,PAYLOAD,2022-10-06 08:26:04,15.0883835,0.0001956999999999,53.2199,262.1016,48.0347,312.0812,5.4833e-05,5.85e-06,0.0,0 STARLINK-3883,1 52493U 22049AU  22279.35143572  .00000585  00000-0  54833-4 0  9997,2 52493  53.2199 262.1016 0001957  48.0347 312.0812 15.08838350 23632,6917.885,95.438,541.104,538.3969999999998,0.0
52493.0,STARLINK-3883,PAYLOAD,2022-10-06 16:22:59,15.08841954,0.000173,53.2194,260.6146,53.5604,306.5548,8.217100000000001e-05,1.02e-05,0.0,0 STARLINK-3883,1 52493U 22049AU  22279.68263201  .00001020  00000-0  82171-4 0  9996,2 52493  53.2194 260.6146 0001730  53.5604 306.5548 15.08841954 23683,6917.874,95.437,540.936,538.543,0.0
52493.0,STARLINK-3883,PAYLOAD,2022-10-07 05:06:04,15.08841593,0.0001853,53.2198,258.2367,48.0323,312.0827,0.00011662,1.568e-05,0.0,0 STARLINK-3883,1 52493U 22049AU  22280.21255156  .00001568  00000-0  11662-3 0  9990,2 52493  53.2198 258.2367 0001853  48.0323 312.0827 15.08841593 23926,6917.876,95.437,541.0219999999998,538.4590000000002,0.0
52493.0,STARLINK-3883,PAYLOAD,2022-10-07 09:52:14,15.08838487,0.0001855,53.2198,257.3447,46.8344,313.2803,8.0365e-05,9.91e-06,0.0,0 STARLINK-3883,1 52493U 22049AU  22280.41127449  .00000991  00000-0  80365-4 0  9991,2 52493  53.2198 257.3447 0001855  46.8344 313.2803 15.08838487 23796,6917.885,95.438,541.033,538.467,0.0
52493.0,STARLINK-3883,PAYLOAD,2022-10-08 04:56:51,15.08836147,0.0001824,53.2202,253.7769,43.9399,316.1738,1.0807e-05,-1.16e-06,0.0,0 STARLINK-3883,1 52493U 22049AU  22281.20615720 -.00000116  00000-0  10807-4 0  9997,2 52493  53.2202 253.7769 0001824  43.9399 316.1738 15.08836147 24075,6917.892,95.438,541.019,538.495,0.0
52493.0,STARLINK-3883,PAYLOAD,2022-10-08 09:43:01,15.08835397,0.0001806,53.2199,252.8845,44.3388,315.7749,-1.102e-05,-4.63e-06,0.0,0 STARLINK-3883,1 52493U 22049AU  22281.40487888 -.00000463  00000-0 -11020-4 0  9995,2 52493  53.2199 252.8845 0001806  44.3388 315.7749 15.08835397 23946,6917.894,95.438,541.009,538.51,0.0
52493.0,STARLINK-3883,PAYLOAD,2022-10-09 03:12:16,15.08830934,0.0001819,53.2193,249.615,40.4114,319.7013,-6.1228e-05,-1.262e-05,0.0,0 STARLINK-3883,1 52493U 22049AU  22282.13352541 -.00001262  00000-0 -61228-4 0  9996,2 52493  53.2193 249.6150 0001819  40.4114 319.7013 15.08830934 24212,6917.908,95.438,541.031,538.515,0.0
52493.0,STARLINK-3883,PAYLOAD,2022-10-09 07:58:25,15.08829095,0.0001764999999999,53.2195,248.7216,45.8964,314.2173,6.9372e-05,8.16e-06,0.0,0 STARLINK-3883,1 52493U 22049AU  22282.33224252  .00000816  00000-0  69372-4 0  9995,2 52493  53.2195 248.7216 0001765  45.8964 314.2173 15.08829095 24087,6917.9140000000025,95.438,541.0,538.558,0.0
52493.0,STARLINK-3883,PAYLOAD,2022-10-09 14:19:57,15.08838089,0.0001844,53.2194,247.5329,44.2535,315.8604,3.5574e-05,2.78e-06,0.0,0 STARLINK-3883,1 52493U 22049AU  22282.59719889  .00000278  00000-0  35574-4 0  9997,2 52493  53.2194 247.5329 0001844  44.2535 315.8604 15.08838089 24284,6917.886,95.438,541.0269999999998,538.476,0.0
52493.0,STARLINK-3883,PAYLOAD,2022-10-10 06:13:49,15.0883751,0.0001756,53.2186,244.5566,43.3558,316.7572,4.753e-05,4.68e-06,0.0,0 STARLINK-3883,1 52493U 22049AU  22283.25959730  .00000468  00000-0  47530-4 0  9998,2 52493  53.2186 244.5566 0001756  43.3558 316.7572 15.08837510 24228,6917.888000000001,95.438,540.9680000000002,538.538,0.0
52493.0,STARLINK-3883,PAYLOAD,2022-10-11 04:29:13,15.08835324,0.0001962,53.2187,240.3918,35.4839,324.6284,3.5665e-05,2.79e-06,0.0,0 STARLINK-3883,1 52493U 22049AU  22284.18696189  .00000279  00000-0  35665-4 0  9993,2 52493  53.2187 240.3918 0001962  35.4839 324.6284 15.08835324 24529,6917.895,95.438,541.117,538.4019999999998,0.0
52493.0,STARLINK-3883,PAYLOAD,2022-10-11 06:04:37,15.08824071,0.0001823,53.219,240.0987,46.3232,313.7911,-7.522e-05,-1.485e-05,0.0,0 STARLINK-3883,1 52493U 22049AU  22284.25321271 -.00001485  00000-0 -75220-4 0  9991,2 52493  53.2190 240.0987 0001823  46.3232 313.7911 15.08824071 24534,6917.929,95.439,541.055,538.533,0.0
52493.0,STARLINK-3883,PAYLOAD,2022-10-12 04:20:01,15.08830966,0.0001942,53.2194,235.9362,48.5412,311.5747,6.0506e-07,-2.79e-06,0.0,0 STARLINK-3883,1 52493U 22049AU  22285.18057305 -.00000279  00000-0  60506-6 0  9990,2 52493  53.2194 235.9362 0001942  48.5412 311.5747 15.08830966 24672,6917.908,95.438,541.116,538.43,0.0
52493.0,STARLINK-3883,PAYLOAD,2022-10-12 05:55:24,15.08835314,0.0001878,53.2195,235.639,52.0818,308.0343,3.4432e-05,2.6e-06,0.0,0 STARLINK-3883,1 52493U 22049AU  22285.24681004  .00000260  00000-0  34432-4 0  9992,2 52493  53.2195 235.6390 0001878  52.0818 308.0343 15.08835314 24528,6917.895,95.438,541.059,538.461,0.0
52493.0,STARLINK-3883,PAYLOAD,2022-10-12 13:52:19,15.08843686,0.0001933,53.2195,234.1522,50.7614,309.3549,7.767e-05,9.48e-06,0.0,0 STARLINK-3883,1 52493U 22049AU  22285.57800415  .00000948  00000-0  77670-4 0  9991,2 52493  53.2195 234.1522 0001933  50.7614 309.3549 15.08843686 24736,6917.869000000002,95.437,541.071,538.3969999999998,0.0
52493.0,STARLINK-3883,PAYLOAD,2022-10-13 04:10:48,15.08834301,0.0001749,53.2194,231.4767,54.6574,305.4582,3.8504e-05,3.25e-06,0.0,0 STARLINK-3883,1 52493U 22049AU  22286.17417341  .00000325  00000-0  38504-4 0  9992,2 52493  53.2194 231.4767 0001749  54.6574 305.4582 15.08834301 24827,6917.898,95.438,540.9730000000002,538.553,0.0
52493.0,STARLINK-3883,PAYLOAD,2022-10-13 13:43:07,15.08831551,0.0001853,53.2195,229.6922,53.8005,306.3158,0.00015265,2.142e-05,0.0,0 STARLINK-3883,1 52493U 22049AU  22286.57161330  .00002142  00000-0  15265-3 0  9997,2 52493  53.2195 229.6922 0001853  53.8005 306.3158 15.08831551 24728,6917.906,95.438,541.053,538.489,0.0
52493.0,STARLINK-3883,PAYLOAD,2022-10-14 02:26:12,15.08840325,0.0001776999999999,53.2195,227.3139,54.8004,305.3154,4.5182e-05,4.31e-06,0.0,0 STARLINK-3883,1 52493U 22049AU  22287.10153318  .00000431  00000-0  45182-4 0  9995,2 52493  53.2195 227.3139 0001777  54.8004 305.3154 15.08840325 24801,6917.879,95.438,540.974,538.515,0.0
52493.0,STARLINK-3883,PAYLOAD,2022-10-14 13:33:53,15.088511,0.0001665,53.2193,225.2325,55.5783,304.5366,-2.3772e-05,-6.67e-06,0.0,0 STARLINK-3883,1 52493U 22049AU  22287.56520703 -.00000667  00000-0 -23772-4 0  9995,2 52493  53.2193 225.2325 0001665  55.5783 304.5366 15.08851100 25036,6917.846,95.437,540.863,538.56,0.0
52493.0,STARLINK-3883,PAYLOAD,2022-10-15 02:16:59,15.08836955,0.0001786,53.2197,222.8528,59.0865,301.0303,6.1342e-05,6.88e-06,0.0,0 STARLINK-3883,1 52493U 22049AU  22288.09513386  .00000688  00000-0  61342-4 0  9999,2 52493  53.2197 222.8528 0001786  59.0865 301.0303 15.08836955 25115,6917.89,95.438,540.99,538.519,0.0
